start=new Date('2022-11-21T00:00:00.000Z').valueOf();
sats=[{"OBJECT_ID":"2021-005H","EPHEMERIS_TYPE":"0","ARG_OF_PERICENTER":"79.9172","RA_OF_ASC_NODE":"41.5782","TIME_SYSTEM":"UTC","REV_AT_EPOCH":"10182","ECCENTRICITY":"0.00013830","COUNTRY_CODE":"US","FILE":"3665715","OBJECT_NAME":"STARLINK-2049","SEMIMAJOR_AXIS":"6925.398","EPOCH":"2022-11-20T13:51:29.773152","MEAN_MOTION_DDOT":"0.0000000000000","MEAN_MOTION_DOT":"-0.00000394","PERIOD":"95.593","CENTER_NAME":"EARTH","OBJECT_TYPE":"PAYLOAD","MEAN_ELEMENT_THEORY":"SGP4","PERIAPSIS":"546.305","TLE_LINE1":"1 47356U 21005H   22324.57742793 -.00000394  00000-0 -75593-5 0  9992","CLASSIFICATION_TYPE":"U","GP_ID":"218360803","MEAN_MOTION":"15.06383939","SITE":"AFETR","DECAY_DATE":null,"MEAN_ANOMALY":"280.1973","RCS_SIZE":"LARGE","LAUNCH_DATE":"2021-01-20","NORAD_CAT_ID":"47356","ELEMENT_SET_NO":"999","TLE_LINE2":"2 47356  53.0562  41.5782 0001383  79.9172 280.1973 15.06383939101824","BSTAR":"-0.00000755930000","INCLINATION":"53.0562","APOAPSIS":"548.221","REF_FRAME":"TEME"},{"RA_OF_ASC_NODE":"71.5523","OBJECT_ID":"2021-005J","EPHEMERIS_TYPE":"0","ARG_OF_PERICENTER":"87.7204","COUNTRY_CODE":"US","FILE":"3664760","TIME_SYSTEM":"UTC","REV_AT_EPOCH":"10140","ECCENTRICITY":"0.00013580","CENTER_NAME":"EARTH","OBJECT_NAME":"STARLINK-2050","SEMIMAJOR_AXIS":"6925.353","EPOCH":"2022-11-20T14:03:25.833024","MEAN_MOTION_DDOT":"0.0000000000000","MEAN_MOTION_DOT":"0.00000289","PERIOD":"95.592","MEAN_ELEMENT_THEORY":"SGP4","OBJECT_TYPE":"PAYLOAD","TLE_LINE1":"1 47357U 21005J   22324.58571566  .00000289  00000-0  38323-4 0  9992","CLASSIFICATION_TYPE":"U","GP_ID":"218290775","PERIAPSIS":"546.277","MEAN_ANOMALY":"272.3941","RCS_SIZE":"LARGE","MEAN_MOTION":"15.06398580","SITE":"AFETR","DECAY_DATE":null,"ELEMENT_SET_NO":"999","TLE_LINE2":"2 47357  53.0580  71.5523 0001358  87.7204 272.3941 15.06398580101406","BSTAR":"0.00003832300000","LAUNCH_DATE":"2021-01-20","NORAD_CAT_ID":"47357","APOAPSIS":"548.158","REF_FRAME":"TEME","INCLINATION":"53.0580"},{"NORAD_CAT_ID":"47358","LAUNCH_DATE":"2021-01-20","ELEMENT_SET_NO":"999","TLE_LINE2":"2 47358  53.0567  41.5382 0001327  81.5143 278.5996 15.06383087101822","BSTAR":"-0.00010674000000","INCLINATION":"53.0567","REF_FRAME":"TEME","APOAPSIS":"548.184","PERIAPSIS":"546.346","GP_ID":"218359302","TLE_LINE1":"1 47358U 21005K   22324.58754319 -.00001870  00000-0 -10674-3 0  9999","CLASSIFICATION_TYPE":"U","DECAY_DATE":null,"MEAN_MOTION":"15.06383087","SITE":"AFETR","MEAN_ANOMALY":"278.5996","RCS_SIZE":"LARGE","PERIOD":"95.593","OBJECT_NAME":"STARLINK-2055","SEMIMAJOR_AXIS":"6925.400","MEAN_MOTION_DDOT":"0.0000000000000","EPOCH":"2022-11-20T14:06:03.731616","MEAN_MOTION_DOT":"-0.00001870","CENTER_NAME":"EARTH","OBJECT_TYPE":"PAYLOAD","MEAN_ELEMENT_THEORY":"SGP4","ARG_OF_PERICENTER":"81.5143","EPHEMERIS_TYPE":"0","OBJECT_ID":"2021-005K","RA_OF_ASC_NODE":"41.5382","ECCENTRICITY":"0.00013270","REV_AT_EPOCH":"10182","TIME_SYSTEM":"UTC","FILE":"3665715","COUNTRY_CODE":"US"},{"GP_ID":"218360553","TLE_LINE1":"1 47359U 21005L   22324.66542376  .00002324  00000-0  17487-3 0  9999","CLASSIFICATION_TYPE":"U","PERIAPSIS":"546.230","MEAN_ANOMALY":"284.5615","RCS_SIZE":"LARGE","DECAY_DATE":null,"MEAN_MOTION":"15.06397898","SITE":"AFETR","TLE_LINE2":"2 47359  53.0564  66.1812 0001429  75.5532 284.5615 15.06397898101481","ELEMENT_SET_NO":"999","BSTAR":"0.00017487000000","NORAD_CAT_ID":"47359","LAUNCH_DATE":"2021-01-20","REF_FRAME":"TEME","APOAPSIS":"548.210","INCLINATION":"53.0564","RA_OF_ASC_NODE":"66.1812","ARG_OF_PERICENTER":"75.5532","EPHEMERIS_TYPE":"0","OBJECT_ID":"2021-005L","FILE":"3665715","COUNTRY_CODE":"US","ECCENTRICITY":"0.00014290","REV_AT_EPOCH":"10148","TIME_SYSTEM":"UTC","CENTER_NAME":"EARTH","PERIOD":"95.592","OBJECT_NAME":"STARLINK-2069","SEMIMAJOR_AXIS":"6925.355","MEAN_MOTION_DOT":"0.00002324","MEAN_MOTION_DDOT":"0.0000000000000","EPOCH":"2022-11-20T15:58:12.612864","MEAN_ELEMENT_THEORY":"SGP4","OBJECT_TYPE":"PAYLOAD"},{"OBJECT_ID":"2021-005M","ARG_OF_PERICENTER":"72.4961","EPHEMERIS_TYPE":"0","RA_OF_ASC_NODE":"37.0538","TIME_SYSTEM":"UTC","ECCENTRICITY":"0.00014970","REV_AT_EPOCH":"10188","COUNTRY_CODE":"US","FILE":"3665092","MEAN_MOTION_DDOT":"0.0000000000000","MEAN_MOTION_DOT":"0.00000859","EPOCH":"2022-11-20T11:20:52.677888","SEMIMAJOR_AXIS":"6925.330","OBJECT_NAME":"STARLINK-2070","PERIOD":"95.592","CENTER_NAME":"EARTH","OBJECT_TYPE":"PAYLOAD","MEAN_ELEMENT_THEORY":"SGP4","PERIAPSIS":"546.159","TLE_LINE1":"1 47360U 21005M   22324.47283192  .00000859  00000-0  76516-4 0  9998","CLASSIFICATION_TYPE":"U","GP_ID":"218324361","SITE":"AFETR","MEAN_MOTION":"15.06405959","DECAY_DATE":null,"RCS_SIZE":"LARGE","MEAN_ANOMALY":"287.6192","LAUNCH_DATE":"2021-01-20","NORAD_CAT_ID":"47360","BSTAR":"0.00007651600000","ELEMENT_SET_NO":"999","TLE_LINE2":"2 47360  53.0552  37.0538 0001497  72.4961 287.6192 15.06405959101885","INCLINATION":"53.0552","APOAPSIS":"548.232","REF_FRAME":"TEME"},{"ELEMENT_SET_NO":"999","TLE_LINE2":"2 47361  53.0559  41.2097 0001342  79.5191 280.5949 15.06411719101830","BSTAR":"0.00014559000000","NORAD_CAT_ID":"47361","LAUNCH_DATE":"2021-01-20","REF_FRAME":"TEME","APOAPSIS":"548.107","INCLINATION":"53.0559","GP_ID":"218359052","TLE_LINE1":"1 47361U 21005N   22324.66219228  .00001888  00000-0  14559-3 0  9990","CLASSIFICATION_TYPE":"U","PERIAPSIS":"546.248","MEAN_ANOMALY":"280.5949","RCS_SIZE":"LARGE","DECAY_DATE":null,"MEAN_MOTION":"15.06411719","SITE":"AFETR","CENTER_NAME":"EARTH","PERIOD":"95.591","OBJECT_NAME":"STARLINK-2071","SEMIMAJOR_AXIS":"6925.313","MEAN_MOTION_DOT":"0.00001888","MEAN_MOTION_DDOT":"0.0000000000000","EPOCH":"2022-11-20T15:53:33.412992","MEAN_ELEMENT_THEORY":"SGP4","OBJECT_TYPE":"PAYLOAD","RA_OF_ASC_NODE":"41.2097","EPHEMERIS_TYPE":"0","ARG_OF_PERICENTER":"79.5191","OBJECT_ID":"2021-005N","FILE":"3665715","COUNTRY_CODE":"US","ECCENTRICITY":"0.00013420","REV_AT_EPOCH":"10183","TIME_SYSTEM":"UTC"},{"PERIOD":"95.592","MEAN_MOTION_DDOT":"0.0000000000000","MEAN_MOTION_DOT":"0.00000269","EPOCH":"2022-11-20T16:58:35.090976","OBJECT_NAME":"STARLINK-2076","SEMIMAJOR_AXIS":"6925.362","CENTER_NAME":"EARTH","OBJECT_TYPE":"PAYLOAD","MEAN_ELEMENT_THEORY":"SGP4","ARG_OF_PERICENTER":"84.0153","EPHEMERIS_TYPE":"0","OBJECT_ID":"2021-005P","RA_OF_ASC_NODE":"71.0050","ECCENTRICITY":"0.00011910","REV_AT_EPOCH":"10142","TIME_SYSTEM":"UTC","FILE":"3665715","COUNTRY_CODE":"US","NORAD_CAT_ID":"47362","LAUNCH_DATE":"2021-01-20","BSTAR":"0.00003696700000","TLE_LINE2":"2 47362  53.0568  71.0050 0001191  84.0153 276.0972 15.06395522101426","ELEMENT_SET_NO":"999","INCLINATION":"53.0568","REF_FRAME":"TEME","APOAPSIS":"548.052","PERIAPSIS":"546.402","GP_ID":"218359802","TLE_LINE1":"1 47362U 21005P   22324.70735059  .00000269  00000-0  36967-4 0  9991","CLASSIFICATION_TYPE":"U","DECAY_DATE":null,"SITE":"AFETR","MEAN_MOTION":"15.06395522","RCS_SIZE":"LARGE","MEAN_ANOMALY":"276.0972"},{"PERIOD":"95.592","SEMIMAJOR_AXIS":"6925.329","OBJECT_NAME":"STARLINK-2077","MEAN_MOTION_DOT":"0.00000210","MEAN_MOTION_DDOT":"0.0000000000000","EPOCH":"2022-11-20T17:03:53.166528","CENTER_NAME":"EARTH","OBJECT_TYPE":"PAYLOAD","MEAN_ELEMENT_THEORY":"SGP4","EPHEMERIS_TYPE":"0","ARG_OF_PERICENTER":"75.8260","OBJECT_ID":"2021-005Q","RA_OF_ASC_NODE":"70.9676","ECCENTRICITY":"0.00014830","REV_AT_EPOCH":"10142","TIME_SYSTEM":"UTC","FILE":"3665715","COUNTRY_CODE":"US","NORAD_CAT_ID":"47363","LAUNCH_DATE":"2021-01-20","ELEMENT_SET_NO":"999","TLE_LINE2":"2 47363  53.0562  70.9676 0001483  75.8260 284.2894 15.06406374101426","BSTAR":"0.00003297000000","INCLINATION":"53.0562","REF_FRAME":"TEME","APOAPSIS":"548.221","PERIAPSIS":"546.167","GP_ID":"218360054","CLASSIFICATION_TYPE":"U","TLE_LINE1":"1 47363U 21005Q   22324.71103202  .00000210  00000-0  32970-4 0  9998","DECAY_DATE":null,"MEAN_MOTION":"15.06406374","SITE":"AFETR","MEAN_ANOMALY":"284.2894","RCS_SIZE":"LARGE"},{"FILE":"3665715","COUNTRY_CODE":"US","ECCENTRICITY":"0.00012220","REV_AT_EPOCH":"10141","TIME_SYSTEM":"UTC","RA_OF_ASC_NODE":"71.1728","ARG_OF_PERICENTER":"108.6713","EPHEMERIS_TYPE":"0","OBJECT_ID":"2021-005T","MEAN_ELEMENT_THEORY":"SGP4","OBJECT_TYPE":"PAYLOAD","CENTER_NAME":"EARTH","PERIOD":"95.593","MEAN_MOTION_DDOT":"0.0000000000000","MEAN_MOTION_DOT":"-0.00001100","EPOCH":"2022-11-20T16:05:30.351552","SEMIMAJOR_AXIS":"6925.374","OBJECT_NAME":"STARLINK-2081","RCS_SIZE":"LARGE","MEAN_ANOMALY":"251.4408","DECAY_DATE":null,"SITE":"AFETR","MEAN_MOTION":"15.06391582","GP_ID":"218360804","CLASSIFICATION_TYPE":"U","TLE_LINE1":"1 47366U 21005T   22324.67049018 -.00001100  00000-0 -54978-4 0  9993","PERIAPSIS":"546.393","REF_FRAME":"TEME","APOAPSIS":"548.086","INCLINATION":"53.0561","BSTAR":"-0.00005497800000","TLE_LINE2":"2 47366  53.0561  71.1728 0001222 108.6713 251.4408 15.06391582101418","ELEMENT_SET_NO":"999","NORAD_CAT_ID":"47366","LAUNCH_DATE":"2021-01-20"},{"TLE_LINE2":"2 47367  53.0571  71.0333 0001187  86.2922 273.8202 15.06415880101423","ELEMENT_SET_NO":"999","BSTAR":"-0.00030011000000","NORAD_CAT_ID":"47367","LAUNCH_DATE":"2021-01-20","REF_FRAME":"TEME","APOAPSIS":"547.987","INCLINATION":"53.0571","GP_ID":"218359552","TLE_LINE1":"1 47367U 21005U   22324.69629714 -.00004751  00000-0 -30011-3 0  9999","CLASSIFICATION_TYPE":"U","PERIAPSIS":"546.343","MEAN_ANOMALY":"273.8202","RCS_SIZE":"LARGE","DECAY_DATE":null,"MEAN_MOTION":"15.06415880","SITE":"AFETR","CENTER_NAME":"EARTH","PERIOD":"95.591","OBJECT_NAME":"STARLINK-2082","SEMIMAJOR_AXIS":"6925.300","MEAN_MOTION_DDOT":"0.0000000000000","MEAN_MOTION_DOT":"-0.00004751","EPOCH":"2022-11-20T16:42:40.072896","MEAN_ELEMENT_THEORY":"SGP4","OBJECT_TYPE":"PAYLOAD","RA_OF_ASC_NODE":"71.0333","EPHEMERIS_TYPE":"0","ARG_OF_PERICENTER":"86.2922","OBJECT_ID":"2021-005U","FILE":"3665715","COUNTRY_CODE":"US","ECCENTRICITY":"0.00011870","REV_AT_EPOCH":"10142","TIME_SYSTEM":"UTC"}];
